CCSDS_OMM_VERS = 2.0
CREATION_DATE  = 
ORIGINATOR     = 

OBJECT_NAME    = COSMOS 2058
OBJECT_ID      = 1990-010A
CENTER_NAME    = EARTH
REF_FRAME      = TEME
TIME_SYSTEM    = UTC
MEAN_ELEMENT_THEORY = SGP/SGP4

EPOCH          = 2026-03-27T20:30:44.455680
MEAN_MOTION    = 15.11481776
ECCENTRICITY   = .00074246
INCLINATION    = 82.4685
RA_OF_ASC_NODE = 29.5278
ARG_OF_PERICENTER = 272.0691
MEAN_ANOMALY   = 87.9689

EPHEMERIS_TYPE = 0
CLASSIFICATION_TYPE = U
NORAD_CAT_ID   = 20465
ELEMENT_SET_NO = 999
REV_AT_EPOCH   = 94498
BSTAR          = .29482013E-3
MEAN_MOTION_DOT = .5019E-4
MEAN_MOTION_DDOT = 0

CCSDS_OMM_VERS = 2.0
CREATION_DATE  = 
ORIGINATOR     = 

OBJECT_NAME    = SL-14 R/B
OBJECT_ID      = 1990-010B
CENTER_NAME    = EARTH
REF_FRAME      = TEME
TIME_SYSTEM    = UTC
MEAN_ELEMENT_THEORY = SGP/SGP4

EPOCH          = 2026-03-27T19:55:07.554720
MEAN_MOTION    = 14.83585090
ECCENTRICITY   = .00185579
INCLINATION    = 82.4996
RA_OF_ASC_NODE = 250.3439
ARG_OF_PERICENTER = 237.8556
MEAN_ANOMALY   = 122.0859

EPHEMERIS_TYPE = 0
CLASSIFICATION_TYPE = U
NORAD_CAT_ID   = 20466
ELEMENT_SET_NO = 999
REV_AT_EPOCH   = 93117
BSTAR          = .58116265E-4
MEAN_MOTION_DOT = .504E-5
MEAN_MOTION_DDOT = 0

CCSDS_OMM_VERS = 2.0
CREATION_DATE  = 
ORIGINATOR     = 

OBJECT_NAME    = SL-14 R/B
OBJECT_ID      = 1990-018B
CENTER_NAME    = EARTH
REF_FRAME      = TEME
TIME_SYSTEM    = UTC
MEAN_ELEMENT_THEORY = SGP/SGP4

EPOCH          = 2026-03-27T19:08:38.843520
MEAN_MOTION    = 14.82162307
ECCENTRICITY   = .00170148
INCLINATION    = 82.5236
RA_OF_ASC_NODE = 206.1674
ARG_OF_PERICENTER = 36.7813
MEAN_ANOMALY   = 323.4565

EPHEMERIS_TYPE = 0
CLASSIFICATION_TYPE = U
NORAD_CAT_ID   = 20511
ELEMENT_SET_NO = 999
REV_AT_EPOCH   = 92526
BSTAR          = .50389253E-4
MEAN_MOTION_DOT = .426E-5
MEAN_MOTION_DDOT = 0

CCSDS_OMM_VERS = 2.0
CREATION_DATE  = 
ORIGINATOR     = 

OBJECT_NAME    = HST
OBJECT_ID      = 1990-037B
CENTER_NAME    = EARTH
REF_FRAME      = TEME
TIME_SYSTEM    = UTC
MEAN_ELEMENT_THEORY = SGP/SGP4

EPOCH          = 2026-03-27T19:40:12.011808
MEAN_MOTION    = 15.29755679
ECCENTRICITY   = .00016349
INCLINATION    = 28.4722
RA_OF_ASC_NODE = 276.2990
ARG_OF_PERICENTER = 339.0360
MEAN_ANOMALY   = 21.0169

EPHEMERIS_TYPE = 0
CLASSIFICATION_TYPE = U
NORAD_CAT_ID   = 20580
ELEMENT_SET_NO = 999
REV_AT_EPOCH   = 77609
BSTAR          = .25395006E-3
MEAN_MOTION_DOT = .7765E-4
MEAN_MOTION_DDOT = 0

CCSDS_OMM_VERS = 2.0
CREATION_DATE  = 
ORIGINATOR     = 

OBJECT_NAME    = SL-16 R/B
OBJECT_ID      = 1990-046B
CENTER_NAME    = EARTH
REF_FRAME      = TEME
TIME_SYSTEM    = UTC
MEAN_ELEMENT_THEORY = SGP/SGP4

EPOCH          = 2026-03-27T19:03:47.859552
MEAN_MOTION    = 14.15015563
ECCENTRICITY   = .00163107
INCLINATION    = 70.9973
RA_OF_ASC_NODE = 259.8872
ARG_OF_PERICENTER = 275.8665
MEAN_ANOMALY   = 84.0598

EPHEMERIS_TYPE = 0
CLASSIFICATION_TYPE = U
NORAD_CAT_ID   = 20625
ELEMENT_SET_NO = 999
REV_AT_EPOCH   = 85095
BSTAR          = .16202719E-3
MEAN_MOTION_DOT = .266E-5
MEAN_MOTION_DDOT = 0

CCSDS_OMM_VERS = 2.0
CREATION_DATE  = 
ORIGINATOR     = 

OBJECT_NAME    = COSMOS 2084
OBJECT_ID      = 1990-055A
CENTER_NAME    = EARTH
REF_FRAME      = TEME
TIME_SYSTEM    = UTC
MEAN_ELEMENT_THEORY = SGP/SGP4

EPOCH          = 2026-03-27T22:03:15.066432
MEAN_MOTION    = 15.05747386
ECCENTRICITY   = .00141957
INCLINATION    = 62.7892
RA_OF_ASC_NODE = 273.3985
ARG_OF_PERICENTER = 195.6384
MEAN_ANOMALY   = 164.4280

EPHEMERIS_TYPE = 0
CLASSIFICATION_TYPE = U
NORAD_CAT_ID   = 20663
ELEMENT_SET_NO = 999
REV_AT_EPOCH   = 93906
BSTAR          = .19688228E-3
MEAN_MOTION_DOT = .2668E-4
MEAN_MOTION_DDOT = 0

CCSDS_OMM_VERS = 2.0
CREATION_DATE  = 
ORIGINATOR     = 

OBJECT_NAME    = SL-6 R/B(2)
OBJECT_ID      = 1990-055D
CENTER_NAME    = EARTH
REF_FRAME      = TEME
TIME_SYSTEM    = UTC
MEAN_ELEMENT_THEORY = SGP/SGP4

EPOCH          = 2026-03-27T15:51:11.743776
MEAN_MOTION    = 15.03678607
ECCENTRICITY   = .00277399
INCLINATION    = 62.7831
RA_OF_ASC_NODE = 192.7333
ARG_OF_PERICENTER = 351.1624
MEAN_ANOMALY   = 8.8983

EPHEMERIS_TYPE = 0
CLASSIFICATION_TYPE = U
NORAD_CAT_ID   = 20666
ELEMENT_SET_NO = 999
REV_AT_EPOCH   = 94089
BSTAR          = .13899077E-3
MEAN_MOTION_DOT = .1725E-4
MEAN_MOTION_DDOT = 0

CCSDS_OMM_VERS = 2.0
CREATION_DATE  = 
ORIGINATOR     = 

OBJECT_NAME    = SL-8 R/B
OBJECT_ID      = 1990-078B
CENTER_NAME    = EARTH
REF_FRAME      = TEME
TIME_SYSTEM    = UTC
MEAN_ELEMENT_THEORY = SGP/SGP4

EPOCH          = 2026-03-27T20:23:08.283552
MEAN_MOTION    = 14.89605627
ECCENTRICITY   = .03585891
INCLINATION    = 82.9021
RA_OF_ASC_NODE = 234.9692
ARG_OF_PERICENTER = 312.7687
MEAN_ANOMALY   = 44.3868

EPHEMERIS_TYPE = 0
CLASSIFICATION_TYPE = U
NORAD_CAT_ID   = 20775
ELEMENT_SET_NO = 999
REV_AT_EPOCH   = 81200
BSTAR          = .34330624E-3
MEAN_MOTION_DOT = .11591E-3
MEAN_MOTION_DDOT = 0

CCSDS_OMM_VERS = 2.0
CREATION_DATE  = 
ORIGINATOR     = 

OBJECT_NAME    = SL-8 R/B
OBJECT_ID      = 1991-006B
CENTER_NAME    = EARTH
REF_FRAME      = TEME
TIME_SYSTEM    = UTC
MEAN_ELEMENT_THEORY = SGP/SGP4

EPOCH          = 2026-03-27T22:49:51.399840
MEAN_MOTION    = 13.77496953
ECCENTRICITY   = .00219028
INCLINATION    = 82.9446
RA_OF_ASC_NODE = 156.4693
ARG_OF_PERICENTER = 347.6665
MEAN_ANOMALY   = 185.1863

EPHEMERIS_TYPE = 0
CLASSIFICATION_TYPE = U
NORAD_CAT_ID   = 21088
ELEMENT_SET_NO = 999
REV_AT_EPOCH   = 76658
BSTAR          = .66254634E-4
MEAN_MOTION_DOT = .81E-6
MEAN_MOTION_DDOT = 0

CCSDS_OMM_VERS = 2.0
CREATION_DATE  = 
ORIGINATOR     = 

OBJECT_NAME    = OKEAN-3
OBJECT_ID      = 1991-039A
CENTER_NAME    = EARTH
REF_FRAME      = TEME
TIME_SYSTEM    = UTC
MEAN_ELEMENT_THEORY = SGP/SGP4

EPOCH          = 2026-03-27T21:33:14.772096
MEAN_MOTION    = 15.04908206
ECCENTRICITY   = .00123186
INCLINATION    = 82.5166
RA_OF_ASC_NODE = 319.2017
ARG_OF_PERICENTER = 269.3729
MEAN_ANOMALY   = 90.6087

EPHEMERIS_TYPE = 0
CLASSIFICATION_TYPE = U
NORAD_CAT_ID   = 21397
ELEMENT_SET_NO = 999
REV_AT_EPOCH   = 86777
BSTAR          = .14865095E-3
MEAN_MOTION_DOT = .2134E-4
MEAN_MOTION_DDOT = 0

CCSDS_OMM_VERS = 2.0
CREATION_DATE  = 
ORIGINATOR     = 

OBJECT_NAME    = COSMOS 2151
OBJECT_ID      = 1991-042A
CENTER_NAME    = EARTH
REF_FRAME      = TEME
TIME_SYSTEM    = UTC
MEAN_ELEMENT_THEORY = SGP/SGP4

EPOCH          = 2026-03-27T21:25:55.943040
MEAN_MOTION    = 15.00180792
ECCENTRICITY   = .00125041
INCLINATION    = 82.4944
RA_OF_ASC_NODE = 66.1110
ARG_OF_PERICENTER = 6.3720
MEAN_ANOMALY   = 353.7660

EPHEMERIS_TYPE = 0
CLASSIFICATION_TYPE = U
NORAD_CAT_ID   = 21422
ELEMENT_SET_NO = 999
REV_AT_EPOCH   = 86592
BSTAR          = .19968501E-3
MEAN_MOTION_DOT = .2524E-4
MEAN_MOTION_DDOT = 0

CCSDS_OMM_VERS = 2.0
CREATION_DATE  = 
ORIGINATOR     = 

OBJECT_NAME    = SL-14 R/B
OBJECT_ID      = 1991-042B
CENTER_NAME    = EARTH
REF_FRAME      = TEME
TIME_SYSTEM    = UTC
MEAN_ELEMENT_THEORY = SGP/SGP4

EPOCH          = 2026-03-27T18:53:19.693536
MEAN_MOTION    = 14.81847432
ECCENTRICITY   = .00171276
INCLINATION    = 82.4955
RA_OF_ASC_NODE = 203.2153
ARG_OF_PERICENTER = 176.7908
MEAN_ANOMALY   = 183.3419

EPHEMERIS_TYPE = 0
CLASSIFICATION_TYPE = U
NORAD_CAT_ID   = 21423
ELEMENT_SET_NO = 999
REV_AT_EPOCH   = 85575
BSTAR          = .58168831E-4
MEAN_MOTION_DOT = .484E-5
MEAN_MOTION_DDOT = 0

