COSMOS 2058             
1 20465U 90010A   26086.85468120  .00005019  00000+0  29482-3 0  9995
2 20465  82.4685  29.5278 0007424 272.0691  87.9689 15.11481776944981
SL-14 R/B               
1 20466U 90010B   26086.82994855  .00000504  00000+0  58116-4 0  9993
2 20466  82.4996 250.3439 0018557 237.8556 122.0859 14.83585090931177
SL-14 R/B               
1 20511U 90018B   26086.79767180  .00000426  00000+0  50389-4 0  9994
2 20511  82.5236 206.1674 0017014  36.7813 323.4565 14.82162307925260
HST                     
1 20580U 90037B   26086.81958347  .00007765  00000+0  25395-3 0  9992
2 20580  28.4722 276.2990 0001634 339.0360  21.0169 15.29755679776099
SL-16 R/B               
1 20625U 90046B   26086.79430393  .00000266  00000+0  16203-3 0  9992
2 20625  70.9973 259.8872 0016310 275.8665  84.0598 14.15015563850955
COSMOS 2084             
1 20663U 90055A   26086.91892438  .00002668  00000+0  19688-3 0  9998
2 20663  62.7892 273.3985 0014195 195.6384 164.4280 15.05747386939064
SL-6 R/B(2)             
1 20666U 90055D   26086.66055259  .00001725  00000+0  13899-3 0  9996
2 20666  62.7831 192.7333 0027739 351.1624   8.8983 15.03678607940896
SL-8 R/B                
1 20775U 90078B   26086.84940143  .00011591  00000+0  34331-3 0  9993
2 20775  82.9021 234.9692 0358589 312.7687  44.3868 14.89605627812004
SL-8 R/B                
1 21088U 91006B   26086.95128935  .00000081  00000+0  66255-4 0  9995
2 21088  82.9446 156.4693 0021902 347.6665 185.1863 13.77496953766587
OKEAN-3                 
1 21397U 91039A   26086.89808764  .00002134  00000+0  14865-3 0  9992
2 21397  82.5166 319.2017 0012318 269.3729  90.6087 15.04908206867778
COSMOS 2151             
1 21422U 91042A   26086.89300860  .00002524  00000+0  19969-3 0  9992
2 21422  82.4944  66.1110 0012504   6.3720 353.7660 15.00180792865922
SL-14 R/B               
1 21423U 91042B   26086.78703349  .00000484  00000+0  58169-4 0  9999
2 21423  82.4955 203.2153 0017127 176.7908 183.3419 14.81847432855750
